{
  "type": "FeatureCollection",
  "features": [
    {
      "type": "Feature",
      "properties": {
        "norad_id": 43707,
        "name": "BEIDOU-3 M18 (C37)",
        "group": "beidou",
        "lat": -35.31843973898567,
        "lon": 158.18531270920127,
        "alt_km": 21518.519556212985,
        "timestamp": "2025-12-02T13:52:17.527611+00:00",
        "meta_object_name": "BEIDOU-3 M18 (C37)",
        "meta_object_id": "2018-093B",
        "meta_epoch": "2025-12-01T00:50:13.072128",
        "meta_mean_motion": 1.86226416,
        "meta_eccentricity": 0.0006364,
        "meta_inclination": 54.1734,
        "meta_ra_of_asc_node": 189.0115,
        "meta_arg_of_pericenter": 350.6822,
        "meta_mean_anomaly": 9.3993,
        "meta_ephemeris_type": 0,
        "meta_classification_type": "U",
        "meta_norad_cat_id": 43707,
        "meta_element_set_no": 999,
        "meta_rev_at_epoch": 4784,
        "meta_bstar": 0,
        "meta_mean_motion_dot": 1.18e-06,
        "meta_mean_motion_ddot": 0,
        "tle_line1": "1 43707U 18093B   25335.03487352  .00000118  00000+0  00000+0 0  9990",
        "tle_line2": "2 43707  54.1734 189.0115 0006364 350.6822   9.3993  1.86226416 47849"
      },
      "geometry": {
        "type": "Point",
        "coordinates": [
          158.18531270920127,
          -35.31843973898567
        ]
      }
    },
    {
      "type": "Feature",
      "properties": {
        "norad_id": 44204,
        "name": "BEIDOU-3 IGSO-1 (C38)",
        "group": "beidou",
        "lat": -4.782981816749606,
        "lon": 36.76804878934344,
        "alt_km": 35871.87493708222,
        "timestamp": "2025-12-02T13:52:17.527623+00:00",
        "meta_object_name": "BEIDOU-3 IGSO-1 (C38)",
        "meta_object_id": "2019-023A",
        "meta_epoch": "2025-11-19T14:15:02.708640",
        "meta_mean_motion": 1.00252177,
        "meta_eccentricity": 0.0026966,
        "meta_inclination": 58.4003,
        "meta_ra_of_asc_node": 39.8168,
        "meta_arg_of_pericenter": 221.2202,
        "meta_mean_anomaly": 126.9723,
        "meta_ephemeris_type": 0,
        "meta_classification_type": "U",
        "meta_norad_cat_id": 44204,
        "meta_element_set_no": 999,
        "meta_rev_at_epoch": 510,
        "meta_bstar": 0,
        "meta_mean_motion_dot": -2.26e-06,
        "meta_mean_motion_ddot": 0,
        "tle_line1": "1 44204U 19023A   25323.59378135 -.00000226  00000+0  00000+0 0  9994",
        "tle_line2": "2 44204  58.4003  39.8168 0026966 221.2202 126.9723  1.00252177  5102"
      },
      "geometry": {
        "type": "Point",
        "coordinates": [
          36.76804878934344,
          -4.782981816749606
        ]
      }
    },
    {
      "type": "Feature",
      "properties": {
        "norad_id": 44231,
        "name": "BEIDOU-2 G8 (C01)",
        "group": "beidou",
        "lat": -0.2684981784382153,
        "lon": 64.3996411915005,
        "alt_km": 35789.28027957769,
        "timestamp": "2025-12-02T13:52:17.527637+00:00",
        "meta_object_name": "BEIDOU-2 G8 (C01)",
        "meta_object_id": "2019-027A",
        "meta_epoch": "2025-12-02T07:37:22.939104",
        "meta_mean_motion": 1.00270558,
        "meta_eccentricity": 0.00082327,
        "meta_inclination": 1.6332,
        "meta_ra_of_asc_node": 74.6929,
        "meta_arg_of_pericenter": 255.05,
        "meta_mean_anomaly": 0.6027,
        "meta_ephemeris_type": 0,
        "meta_classification_type": "U",
        "meta_norad_cat_id": 44231,
        "meta_element_set_no": 999,
        "meta_rev_at_epoch": 2410,
        "meta_bstar": 0,
        "meta_mean_motion_dot": -2.26e-06,
        "meta_mean_motion_ddot": 0,
        "tle_line1": "1 44231U 19027A   25336.31762661 -.00000226  00000+0  00000+0 0  9993",
        "tle_line2": "2 44231   1.6332  74.6929 0008232 255.0500   0.6027  1.00270558 24100"
      },
      "geometry": {
        "type": "Point",
        "coordinates": [
          64.3996411915005,
          -0.2684981784382153
        ]
      }
    },
    {
      "type": "Feature",
      "properties": {
        "norad_id": 44337,
        "name": "BEIDOU-3 IGSO-2 (C39)",
        "group": "beidou",
        "lat": -44.66390048424645,
        "lon": 24.04722623187126,
        "alt_km": 35663.546574018386,
        "timestamp": "2025-12-02T13:52:17.527649+00:00",
        "meta_object_name": "BEIDOU-3 IGSO-2 (C39)",
        "meta_object_id": "2019-035A",
        "meta_epoch": "2025-12-01T05:17:49.661952",
        "meta_mean_motion": 1.00274502,
        "meta_eccentricity": 0.00376064,
        "meta_inclination": 55.2223,
        "meta_ra_of_asc_node": 160.6035,
        "meta_arg_of_pericenter": 202.2564,
        "meta_mean_anomaly": 266.4761,
        "meta_ephemeris_type": 0,
        "meta_classification_type": "U",
        "meta_norad_cat_id": 44337,
        "meta_element_set_no": 999,
        "meta_rev_at_epoch": 2368,
        "meta_bstar": 0,
        "meta_mean_motion_dot": -2.5e-07,
        "meta_mean_motion_ddot": 0,
        "tle_line1": "1 44337U 19035A   25335.22071368 -.00000025  00000+0  00000+0 0  9992",
        "tle_line2": "2 44337  55.2223 160.6035 0037606 202.2564 266.4761  1.00274502 23688"
      },
      "geometry": {
        "type": "Point",
        "coordinates": [
          24.04722623187126,
          -44.66390048424645
        ]
      }
    },
    {
      "type": "Feature",
      "properties": {
        "norad_id": 44542,
        "name": "BEIDOU-3 M24 (C46)",
        "group": "beidou",
        "lat": -54.26082795672189,
        "lon": 93.87465622109582,
        "alt_km": 21546.09392607618,
        "timestamp": "2025-12-02T13:52:17.527661+00:00",
        "meta_object_name": "BEIDOU-3 M24 (C46)",
        "meta_object_id": "2019-061A",
        "meta_epoch": "2025-12-01T02:32:46.252896",
        "meta_mean_motion": 1.86229258,
        "meta_eccentricity": 0.00095598,
        "meta_inclination": 54.4002,
        "meta_ra_of_asc_node": 189.409,
        "meta_arg_of_pericenter": 23.5384,
        "meta_mean_anomaly": 336.5991,
        "meta_ephemeris_type": 0,
        "meta_classification_type": "U",
        "meta_norad_cat_id": 44542,
        "meta_element_set_no": 999,
        "meta_rev_at_epoch": 4210,
        "meta_bstar": 0,
        "meta_mean_motion_dot": 1.18e-06,
        "meta_mean_motion_ddot": 0,
        "tle_line1": "1 44542U 19061A   25335.10609089  .00000118  00000+0  00000+0 0  9995",
        "tle_line2": "2 44542  54.4002 189.4090 0009559  23.5384 336.5991  1.86229258 42106"
      },
      "geometry": {
        "type": "Point",
        "coordinates": [
          93.87465622109582,
          -54.26082795672189
        ]
      }
    },
    {
      "type": "Feature",
      "properties": {
        "norad_id": 44543,
        "name": "BEIDOU-3 M23 (C45)",
        "group": "beidou",
        "lat": 0.1800096721480109,
        "lon": 9.207513958499169,
        "alt_km": 21544.092033946235,
        "timestamp": "2025-12-02T13:52:17.527672+00:00",
        "meta_object_name": "BEIDOU-3 M23 (C45)",
        "meta_object_id": "2019-061B",
        "meta_epoch": "2025-12-02T01:08:19.108032",
        "meta_mean_motion": 1.86229309,
        "meta_eccentricity": 0.00060105,
        "meta_inclination": 54.3988,
        "meta_ra_of_asc_node": 189.3457,
        "meta_arg_of_pericenter": 20.9817,
        "meta_mean_anomaly": 163.1206,
        "meta_ephemeris_type": 0,
        "meta_classification_type": "U",
        "meta_norad_cat_id": 44543,
        "meta_element_set_no": 999,
        "meta_rev_at_epoch": 4212,
        "meta_bstar": 0,
        "meta_mean_motion_dot": 1.21e-06,
        "meta_mean_motion_ddot": 0,
        "tle_line1": "1 44543U 19061B   25336.04744338  .00000121  00000+0  00000+0 0  9991",
        "tle_line2": "2 44543  54.3988 189.3457 0006010  20.9817 163.1206  1.86229309 42128"
      },
      "geometry": {
        "type": "Point",
        "coordinates": [
          9.207513958499169,
          0.1800096721480109
        ]
      }
    },
    {
      "type": "Feature",
      "properties": {
        "norad_id": 44709,
        "name": "BEIDOU-3 IGSO-3 (C40)",
        "group": "beidou",
        "lat": 50.173445814941005,
        "lon": 46.42083325471778,
        "alt_km": 35757.15417108672,
        "timestamp": "2025-12-02T13:52:17.527684+00:00",
        "meta_object_name": "BEIDOU-3 IGSO-3 (C40)",
        "meta_object_id": "2019-073A",
        "meta_epoch": "2025-11-20T07:11:22.740000",
        "meta_mean_motion": 1.00250097,
        "meta_eccentricity": 0.0044538,
        "meta_inclination": 55.163,
        "meta_ra_of_asc_node": 283.159,
        "meta_arg_of_pericenter": 191.5856,
        "meta_mean_anomaly": 168.2409,
        "meta_ephemeris_type": 0,
        "meta_classification_type": "U",
        "meta_norad_cat_id": 44709,
        "meta_element_set_no": 999,
        "meta_rev_at_epoch": 2236,
        "meta_bstar": 0,
        "meta_mean_motion_dot": -2.06e-06,
        "meta_mean_motion_ddot": 0,
        "tle_line1": "1 44709U 19073A   25324.29956875 -.00000206  00000+0  00000+0 0  9998",
        "tle_line2": "2 44709  55.1630 283.1590 0044538 191.5856 168.2409  1.00250097 22360"
      },
      "geometry": {
        "type": "Point",
        "coordinates": [
          46.42083325471778,
          50.173445814941005
        ]
      }
    }
  ]
}